NORAD_CAT_ID,OBJECT_NAME,OBJECT_TYPE,EPOCH,MEAN_MOTION,ECCENTRICITY,INCLINATION,RA_OF_ASC_NODE,ARG_OF_PERICENTER,MEAN_ANOMALY,BSTAR,MEAN_MOTION_DOT,MEAN_MOTION_DDOT,TLE_LINE0,TLE_LINE1,TLE_LINE2,SEMIMAJOR_AXIS,PERIOD,APOGEE,PERIGEE,DECAYED
51871.0,STARLINK-3567,PAYLOAD,2022-12-01 12:06:39,15.08844917,0.0002381,53.2176,330.036,34.9461,325.1687,7.6397e-05,9.28e-06,0.0,0 STARLINK-3567,1 51871U 22022V   22335.50462628  .00000928  00000-0  76397-4 0  9993,2 51871  53.2176 330.0360 0002381  34.9461 325.1687 15.08844917 42942,6917.865,95.437,541.378,538.0830000000002,0.0
51871.0,STARLINK-3567,PAYLOAD,2022-12-01 16:52:48,15.08848541,0.00024,53.2177,329.1441,34.5379,325.5768,0.00010933,1.452e-05,0.0,0 STARLINK-3567,1 51871U 22022V   22335.70334264  .00001452  00000-0  10933-3 0  9995,2 51871  53.2177 329.1441 0002400  34.5379 325.5768 15.08848541 42905,6917.854,95.437,541.38,538.059,0.0
51871.0,STARLINK-3567,PAYLOAD,2022-12-02 08:46:40,15.08834634,0.0002394,53.2176,326.1701,34.8401,325.2748,0.00017432,2.487e-05,0.0,0 STARLINK-3567,1 51871U 22022V   22336.36575110  .00002487  00000-0  17432-3 0  9995,2 51871  53.2176 326.1701 0002394  34.8401 325.2748 15.08834634 43006,6917.897,95.438,541.418,538.106,0.0
51871.0,STARLINK-3567,PAYLOAD,2022-12-02 16:43:36,15.08843874,0.0002379,53.2176,324.6835,35.3188,324.7961,0.00020739,3.014e-05,0.0,0 STARLINK-3567,1 51871U 22022V   22336.69694543  .00003014  00000-0  20739-3 0  9994,2 51871  53.2176 324.6835 0002379  35.3188 324.7961 15.08843874 43050,6917.869000000002,95.437,541.379,538.0880000000002,0.0
51871.0,STARLINK-3567,PAYLOAD,2022-12-03 08:37:27,15.08846843,0.0002371,53.2166,321.7098,34.9142,325.2006,5.8985e-05,6.51e-06,0.0,0 STARLINK-3567,1 51871U 22022V   22337.35934319  .00000651  00000-0  58985-4 0  9995,2 51871  53.2166 321.7098 0002371  34.9142 325.2006 15.08846843 43229,6917.859,95.437,541.365,538.0840000000002,0.0
51871.0,STARLINK-3567,PAYLOAD,2022-12-03 16:34:23,15.08844441,0.0002351,53.2174,320.2227,34.9532,325.1614,2.3705e-05,8.9e-07,0.0,0 STARLINK-3567,1 51871U 22022V   22337.69054530  .00000089  00000-0  23705-4 0  9997,2 51871  53.2174 320.2227 0002351  34.9532 325.1614 15.08844441 43201,6917.8669999999975,95.437,541.3580000000002,538.105,0.0
51871.0,STARLINK-3567,PAYLOAD,2022-12-04 05:17:28,15.08841704,0.0002269,53.2179,317.8426,34.6932,325.4208,9.1327e-06,-1.43e-06,0.0,0 STARLINK-3567,1 51871U 22022V   22338.22046526 -.00000143  00000-0  91327-5 0  9991,2 51871  53.2179 317.8426 0002269  34.6932 325.4208 15.08841704 43355,6917.875,95.437,541.31,538.1709999999998,0.0
51871.0,STARLINK-3567,PAYLOAD,2022-12-04 16:25:09,15.08843975,0.0002361,53.2177,315.7616,35.8731,324.2419,1.0278e-05,-1.25e-06,0.0,0 STARLINK-3567,1 51871U 22022V   22338.68414287 -.00000125  00000-0  10278-4 0  9999,2 51871  53.2177 315.7616 0002361  35.8731 324.2419 15.08843975 43425,6917.868,95.437,541.367,538.1,0.0
51871.0,STARLINK-3567,PAYLOAD,2022-12-04 22:46:42,15.08844797,0.0002392,53.2171,314.5723,36.2722,323.8432,1.7723e-05,-6e-08,0.0,0 STARLINK-3567,1 51871U 22022V   22338.94910178 -.00000006  00000-0  17723-4 0  9998,2 51871  53.2171 314.5723 0002392  36.2722 323.8432 15.08844797 43393,6917.866,95.437,541.385,538.076,0.0
51871.0,STARLINK-3567,PAYLOAD,2022-12-05 08:19:00,15.08844115,0.0002377,53.2177,312.7870000000001,39.3755,320.741,7.6147e-05,9.24e-06,0.0,0 STARLINK-3567,1 51871U 22022V   22339.34653909  .00000924  00000-0  76147-4 0  9992,2 51871  53.2177 312.7870 0002377  39.3755 320.7410 15.08844115 43526,6917.868,95.437,541.377,538.0880000000002,0.0
51871.0,STARLINK-3567,PAYLOAD,2022-12-06 04:59:01,15.08846425,0.0002361,53.2174,308.9224,35.7009,324.414,0.00014576,2.033e-05,0.0,0 STARLINK-3567,1 51871U 22022V   22340.20765374  .00002033  00000-0  14576-3 0  9999,2 51871  53.2174 308.9224 0002361  35.7009 324.4140 15.08846425 43581,6917.861,95.437,541.359,538.092,0.0
51871.0,STARLINK-3567,PAYLOAD,2022-12-06 06:34:24,15.08844818,0.0002399,53.2173,308.6239,32.6801,327.434,8.2689e-05,1.028e-05,0.0,0 STARLINK-3567,1 51871U 22022V   22340.27389468  .00001028  00000-0  82689-4 0  9996,2 51871  53.2173 308.6239 0002399  32.6801 327.4340 15.08844818 43668,6917.866,95.437,541.39,538.071,0.0
51871.0,STARLINK-3567,PAYLOAD,2022-12-06 14:31:21,15.08833048,0.0002433,53.2182,307.1384,33.0639,327.0505,-2.2842e-05,-6.52e-06,0.0,0 STARLINK-3567,1 51871U 22022V   22340.60510675 -.00000652  00000-0 -22842-4 0  9998,2 51871  53.2182 307.1384 0002433  33.0639 327.0505 15.08833048 43714,6917.901999999999,95.438,541.45,538.0840000000002,0.0
51871.0,STARLINK-3567,PAYLOAD,2022-12-06 22:28:16,15.08832845,0.0002396,53.217,305.6518,32.6657,327.4483,2.272800000000001e-05,7.3e-07,0.0,0 STARLINK-3567,1 51871U 22022V   22340.93630673  .00000073  00000-0  22728-4 0  9993,2 51871  53.2170 305.6518 0002396  32.6657 327.4483 15.08832845 43696,6917.901999999999,95.438,541.425,538.11,0.0
51871.0,STARLINK-3567,PAYLOAD,2022-12-07 14:22:08,15.08833032,0.0002431,53.2177,302.6789,36.6645,323.4513,-5.9365e-05,-1.233e-05,0.0,0 STARLINK-3567,1 51871U 22022V   22341.59871131 -.00001233  00000-0 -59365-4 0  9990,2 51871  53.2177 302.6789 0002431  36.6645 323.4513 15.08833032 43869,6917.901999999999,95.438,541.448,538.085,0.0
51871.0,STARLINK-3567,PAYLOAD,2022-12-08 06:15:58,15.08848808,0.0002257,53.2183,299.7048,33.5089,326.6046,4.1042e-05,3.65e-06,0.0,0 STARLINK-3567,1 51871U 22022V   22342.26109806  .00000365  00000-0  41042-4 0  9994,2 51871  53.2183 299.7048 0002257  33.5089 326.6046 15.08848808 43968,6917.853,95.437,541.28,538.1569999999998,0.0
51871.0,STARLINK-3567,PAYLOAD,2022-12-08 14:12:54,15.08842796,0.0002437,53.2169,298.2161,31.3377,328.776,0.00013109,1.799e-05,0.0,0 STARLINK-3567,1 51871U 22022V   22342.59229893  .00001799  00000-0  13109-3 0  9993,2 51871  53.2169 298.2161 0002437  31.3377 328.7760 15.08842796 43942,6917.871999999999,95.437,541.423,538.0509999999998,0.0
51871.0,STARLINK-3567,PAYLOAD,2022-12-09 01:20:35,15.08853541,0.0002203,53.2166,296.136,31.236,328.8763,0.00021954,3.209e-05,0.0,0 STARLINK-3567,1 51871U 22022V   22343.05596790  .00003209  00000-0  21954-3 0  9993,2 51871  53.2166 296.1360 0002203  31.2360 328.8763 15.08853541 44089,6917.839,95.437,541.2280000000002,538.18,0.0
51871.0,STARLINK-3567,PAYLOAD,2022-12-10 05:57:35,15.0882827,0.0002602,53.2175,290.7838,32.1693,327.9457,-9.4475e-05,-1.791e-05,0.0,0 STARLINK-3567,1 51871U 22022V   22344.24832214 -.00001791  00000-0 -94475-4 0  9994,2 51871  53.2175 290.7838 0002602  32.1693 327.9457 15.08828270 44194,6917.916,95.438,541.581,537.981,0.0
51871.0,STARLINK-3567,PAYLOAD,2022-12-11 02:37:35,15.08835477,0.0002909,53.2168,286.9239,30.3344,329.7816,9.2088e-05,1.177e-05,0.0,0 STARLINK-3567,1 51871U 22022V   22345.10943473  .00001177  00000-0  92088-4 0  9994,2 51871  53.2168 286.9239 0002909  30.3344 329.7816 15.08835477 44322,6917.894,95.438,541.7719999999998,537.747,0.0
51871.0,STARLINK-3567,PAYLOAD,2022-12-11 20:06:49,15.08853798,0.0003281,53.2168,283.6529,23.499,336.6151,-0.00012168,-2.226e-05,0.0,0 STARLINK-3567,1 51871U 22022V   22345.83807581 -.00002226  00000-0 -12168-3 0  9991,2 51871  53.2168 283.6529 0003281  23.4990 336.6151 15.08853798 44507,6917.8380000000025,95.437,541.9730000000002,537.433,0.0
51871.0,STARLINK-3567,PAYLOAD,2022-12-12 02:28:22,15.08836618,0.0002362,53.2165,282.4577,34.2125,325.9019,0.00024026,3.537e-05,0.0,0 STARLINK-3567,1 51871U 22022V   22346.10304108  .00003537  00000-0  24026-3 0  9999,2 51871  53.2165 282.4577 0002362  34.2125 325.9019 15.08836618 44475,6917.891,95.438,541.39,538.122,0.0
51871.0,STARLINK-3567,PAYLOAD,2022-12-12 19:57:36,15.08845953,0.0002265,53.2175,279.1863,39.229,320.8866,0.00010982,1.46e-05,0.0,0 STARLINK-3567,1 51871U 22022V   22346.83167378  .00001460  00000-0  10982-3 0  9994,2 51871  53.2175 279.1863 0002265  39.2290 320.8866 15.08845953 44653,6917.861999999999,95.437,541.294,538.16,0.0
51871.0,STARLINK-3567,PAYLOAD,2022-12-13 03:54:32,15.08838868,0.0002383,53.2173,277.7009,33.3697,326.7445,2.8923e-05,1.72e-06,0.0,0 STARLINK-3567,1 51871U 22022V   22347.16288003  .00000172  00000-0  28923-4 0  9994,2 51871  53.2173 277.7009 0002383  33.3697 326.7445 15.08838868 44637,6917.884,95.438,541.3969999999998,538.1,0.0
51871.0,STARLINK-3567,PAYLOAD,2022-12-13 05:29:55,15.08843628,0.0002757,53.2168,277.4035,27.1172,332.9964,-2.5051e-05,-6.87e-06,0.0,0 STARLINK-3567,1 51871U 22022V   22347.22911510 -.00000687  00000-0 -25051-4 0  9999,2 51871  53.2168 277.4035 0002757  27.1172 332.9964 15.08843628 44715,6917.869000000002,95.437,541.6419999999998,537.827,0.0
51871.0,STARLINK-3567,PAYLOAD,2022-12-13 19:48:24,15.08838146,0.0002419,53.217,274.7265,32.3047,327.8093,5.1682e-05,5.34e-06,0.0,0 STARLINK-3567,1 51871U 22022V   22347.82527993  .00000534  00000-0  51682-4 0  9991,2 51871  53.2170 274.7265 0002419  32.3047 327.8093 15.08838146 44802,6917.886,95.438,541.424,538.078,0.0
51871.0,STARLINK-3567,PAYLOAD,2022-12-14 11:42:15,15.08845327,0.0001998,53.2168,271.7534,35.1666,324.9457,2.0808e-05,4.3e-07,0.0,0 STARLINK-3567,1 51871U 22022V   22348.48767393  .00000043  00000-0  20808-4 0  9995,2 51871  53.2168 271.7534 0001998  35.1666 324.9457 15.08845327 44906,6917.864000000001,95.437,541.111,538.347,0.0
51871.0,STARLINK-3567,PAYLOAD,2022-12-15 05:11:29,15.08840521,0.0002535,53.2169,268.4826,27.4677,332.6449,1.4544000000000008e-05,-5.7e-07,0.0,0 STARLINK-3567,1 51871U 22022V   22349.21631934 -.00000057  00000-0  14544-4 0  9994,2 51871  53.2169 268.4826 0002535  27.4677 332.6449 15.08840521 44940,6917.879,95.438,541.497,537.99,0.0
51871.0,STARLINK-3567,PAYLOAD,2022-12-15 11:33:01,15.0884869,0.0002419,53.2172,267.2931,30.4728,329.6404,0.00018189,2.608e-05,0.0,0 STARLINK-3567,1 51871U 22022V   22349.48126989  .00002608  00000-0  18189-3 0  9993,2 51871  53.2172 267.2931 0002419  30.4728 329.6404 15.08848690 44986,6917.854,95.437,541.3919999999998,538.045,0.0
